ONEWEB-0210             
1 48787U 21045W   24155.23533991  .00000191  00000+0  47200-3 0  9994
2 48787  87.9051  47.2310 0002477  99.7282 260.4129 13.15547504147630
ONEWEB-0214             
1 48788U 21045X   24155.16878130  .00000062  00000+0  13061-3 0  9999
2 48788  87.9051  47.2329 0002072  99.0220 261.1144 13.15546606147588
ONEWEB-0221             
1 48789U 21045Y   24154.94695430 -.00000049  00000+0 -16404-3 0  9996
2 48789  87.9054  47.2945 0002181  81.9826 278.1552 13.15547354146524
ONEWEB-0213             
1 48790U 21045Z   24155.16402851  .00000169  00000+0  41477-3 0  9995
2 48790  87.9051  47.2654 0002259  84.4746 275.6642 13.15547147147742
ONEWEB-0212             
1 48791U 21045AA  24155.21711531  .00000177  00000+0  43738-3 0  9991
2 48791  87.9053  47.2373 0001885  77.2889 282.8452 13.15547194147757
ONEWEB-0227             
1 48792U 21045AB  24154.45574729  .00000168  00000+0  41267-3 0  9998
2 48792  87.9050  47.4046 0002056  80.8135 279.3228 13.15547274146467
ONEWEB-0226             
1 48793U 21045AC  24155.20998395  .00000142  00000+0  34429-3 0  9996
2 48793  87.9050  47.2612 0002292  91.9491 268.1901 13.15547141147654
ONEWEB-0224             
1 48794U 21045AD  24154.94536381 -.00000002  00000+0 -39305-4 0  9996
2 48794  87.9056  47.3340 0002820  64.0843 296.0578 13.15546322146423
